{
  "norad_id": 52625,
  "name": "STARLINK-3988",
  "history": [
    {
      "epoch": "2026-03-28T17:42:03.785184Z",
      "apogee_km": 540.7912323248138,
      "perigee_km": 538.6785142547124,
      "latitude_deg": 7.510550179096932e-06,
      "longitude_deg": 91.94164177015053,
      "height_km": 540.6820387757474,
      "semi_major_axis_km": 6917.871873289763,
      "eccentricity": 0.0001527,
      "inclination_deg": 53.2166,
      "raan_deg": 183.6111,
      "arg_perigee_deg": 92.8094,
      "mean_anomaly_deg": 267.3073,
      "mean_motion_rev_day": 15.08842786
    },
    {
      "epoch": "2026-03-29T06:25:09.122880Z",
      "apogee_km": 540.6880941486997,
      "perigee_km": 538.8004810605653,
      "latitude_deg": -3.190074230585597e-05,
      "longitude_deg": -101.73194373492996,
      "height_km": 540.6674856990309,
      "semi_major_axis_km": 6917.881287604632,
      "eccentricity": 0.00013643,
      "inclination_deg": 53.2164,
      "raan_deg": 181.2321,
      "arg_perigee_deg": 91.6757,
      "mean_anomaly_deg": 268.4391,
      "mean_motion_rev_day": 15.08839706
    },
    {
      "epoch": "2026-03-30T14:12:50.763744Z",
      "apogee_km": 540.6566742862105,
      "perigee_km": 538.7877454420741,
      "latitude_deg": 1.7557771004736036e-05,
      "longitude_deg": 134.09202034207624,
      "height_km": 540.6581536435257,
      "semi_major_axis_km": 6917.859209864142,
      "eccentricity": 0.00013508,
      "inclination_deg": 53.2167,
      "raan_deg": 175.2853,
      "arg_perigee_deg": 92.4716,
      "mean_anomaly_deg": 267.6431,
      "mean_motion_rev_day": 15.08846929
    },
    {
      "epoch": "2026-03-30T15:48:13.886784Z",
      "apogee_km": 540.6706112368711,
      "perigee_km": 538.7893664879193,
      "latitude_deg": 2.9854394729600293e-05,
      "longitude_deg": 109.88299458626321,
      "height_km": 540.6859252882452,
      "semi_major_axis_km": 6917.8669888623945,
      "eccentricity": 0.00013597,
      "inclination_deg": 53.2167,
      "raan_deg": 174.9879,
      "arg_perigee_deg": 93.6758,
      "mean_anomaly_deg": 266.439,
      "mean_motion_rev_day": 15.08844384
    },
    {
      "epoch": "2026-03-31T12:28:16.405248Z",
      "apogee_km": 540.9674749661845,
      "perigee_km": 538.5733255730993,
      "latitude_deg": 5.0763053010341446e-05,
      "longitude_deg": 155.15933908379313,
      "height_km": 540.6953325170363,
      "semi_major_axis_km": 6917.907400269642,
      "eccentricity": 0.00017304,
      "inclination_deg": 53.2179,
      "raan_deg": 171.1235,
      "arg_perigee_deg": 91.422,
      "mean_anomaly_deg": 268.6971,
      "mean_motion_rev_day": 15.08831163
    },
    {
      "epoch": "2026-04-01T09:08:16.814688Z",
      "apogee_km": 540.9612197939068,
      "perigee_km": 538.5219758003241,
      "latitude_deg": -3.165928775966689e-07,
      "longitude_deg": -159.55685826229984,
      "height_km": 540.6884274807502,
      "semi_major_axis_km": 6917.878597797116,
      "eccentricity": 0.0001763,
      "inclination_deg": 53.2185,
      "raan_deg": 167.2578,
      "arg_perigee_deg": 92.4236,
      "mean_anomaly_deg": 267.6958,
      "mean_motion_rev_day": 15.08840586
    },
    {
      "epoch": "2026-04-02T13:45:13.180608Z",
      "apogee_km": 540.7822976689922,
      "perigee_km": 538.7275454104556,
      "latitude_deg": 1.067100671843793e-05,
      "longitude_deg": 124.67898978905579,
      "height_km": 540.4790984322921,
      "semi_major_axis_km": 6917.891921539724,
      "eccentricity": 0.00014851,
      "inclination_deg": 53.2161,
      "raan_deg": 161.9037,
      "arg_perigee_deg": 80.405,
      "mean_anomaly_deg": 279.711,
      "mean_motion_rev_day": 15.08836227
    },
    {
      "epoch": "2026-04-02T21:42:08.829504Z",
      "apogee_km": 540.7456412762513,
      "perigee_km": 538.7398712197246,
      "latitude_deg": 1.67614106237666e-05,
      "longitude_deg": 3.635178887255645,
      "height_km": 540.507536919898,
      "semi_major_axis_km": 6917.879756247988,
      "eccentricity": 0.00014497,
      "inclination_deg": 53.2165,
      "raan_deg": 160.4182,
      "arg_perigee_deg": 82.5104,
      "mean_anomaly_deg": 277.6053,
      "mean_motion_rev_day": 15.08840207
    },
    {
      "epoch": "2026-04-03T13:36:00.218880Z",
      "apogee_km": 540.753816836961,
      "perigee_km": 538.7171951711935,
      "latitude_deg": 1.1642439587932959e-05,
      "longitude_deg": 121.5445611377164,
      "height_km": 540.5250235600574,
      "semi_major_axis_km": 6917.872506004077,
      "eccentricity": 0.0001472,
      "inclination_deg": 53.2164,
      "raan_deg": 157.4446,
      "arg_perigee_deg": 84.0285,
      "mean_anomaly_deg": 276.0875,
      "mean_motion_rev_day": 15.08842579
    },
    {
      "epoch": "2026-04-04T03:54:28.956960Z",
      "apogee_km": 540.708156676521,
      "perigee_km": 538.8047674693671,
      "latitude_deg": -2.3824643764381164e-06,
      "longitude_deg": -96.34019945172304,
      "height_km": 540.562833484871,
      "semi_major_axis_km": 6917.893462072944,
      "eccentricity": 0.00013757,
      "inclination_deg": 53.2152,
      "raan_deg": 154.7672,
      "arg_perigee_deg": 84.6287,
      "mean_anomaly_deg": 275.4862,
      "mean_motion_rev_day": 15.08835723
    },
    {
      "epoch": "2026-04-05T13:17:35.409984Z",
      "apogee_km": 540.8067582248304,
      "perigee_km": 538.7297263548853,
      "latitude_deg": -1.0311557854745145e-05,
      "longitude_deg": 115.26702686564124,
      "height_km": 540.6591556228733,
      "semi_major_axis_km": 6917.905242289858,
      "eccentricity": 0.00015012,
      "inclination_deg": 53.2157,
      "raan_deg": 148.5224,
      "arg_perigee_deg": 89.7565,
      "mean_anomaly_deg": 270.3599,
      "mean_motion_rev_day": 15.08831869
    }
  ]
}